*******************************************************************************
Ephemeris / WWW_USER Mon Mar 24 07:35:33 2025 Pasadena, USA      / Horizons    
*******************************************************************************
Target body name: (2018 RG5)                      {source: JPL#6}
Center body name: Earth (399)                     {source: DE441}
Center-site name: Mauna Kea
*******************************************************************************
Start time      : A.D. 2018-Oct-10 04:12:00.0000 UT      
Stop  time      : A.D. 2018-Oct-10 16:05:00.0000 UT      
Step-size       : 1 minutes
*******************************************************************************
Target pole/equ : undefined
Target radii    : undefined                                                    
Center geodetic : 204.5278, 19.8260847, 4.21024   {E-lon(deg),Lat(deg),Alt(km)}
Center cylindric: 204.5278, 6006.35451, 2151.0229 {E-lon(deg),Dxy(km),Dz(km)}
Center pole/equ : ITRF93                          {East-longitude positive}
Center radii    : 6378.137, 6378.137, 6356.752 km {Equator_a, b, pole_c}       
Target primary  : Sun
Vis. interferer : MOON (R_eq= 1737.400) km        {source: DE441}
Rel. light bend : Sun                             {source: DE441}
Rel. lght bnd GM: 1.3271E+11 km^3/s^2                                          
Small-body perts: Yes                             {source: SB441-N16}
Atmos refraction: NO (AIRLESS)
RA format       : HMS
Time format     : CAL 
Calendar mode   : Mixed Julian/Gregorian
RTS-only print  : NO       
EOP file        : eop.250321.p250617                                           
EOP coverage    : DATA-BASED 1962-JAN-20 TO 2025-MAR-21. PREDICTS-> 2025-JUN-16
Units conversion: 1 au= 149597870.700 km, c= 299792.458 km/s, 1 day= 86400.0 s 
Table cut-offs 1: Elevation (-90.0deg=NO ),Airmass (>38.000=NO), Daylight (YES)
Table cut-offs 2: Solar elongation (  0.0,180.0=NO ),Local Hour Angle( 0.0=NO )
Table cut-offs 3: RA/DEC angular rate (     0.0=NO )                           
*******************************************************************************
Initial IAU76/J2000 heliocentric ecliptic osculating elements (au, days, deg.):
  EPOCH=  2458374.5 ! 2018-Sep-13.00 (TDB)         Residual RMS= .44286        
   EC= .3970272763955992   QR= .9476094655819058   TP= 2458410.7007282218      
   OM= 172.9777515025259   W=  220.286388004559    IN= 6.065188755768435       
  Equivalent ICRF heliocentric cartesian coordinates (au, au/d):
   X= 1.011373795361920E+00  Y=-1.657289676662098E-01  Z=-6.569093016663846E-02
  VX=-6.707749535245534E-04 VY= 1.878070382659777E-02 VZ= 5.901532854039199E-03
Asteroid physical parameters (km, seconds, rotational period in hours):        
   GM= n.a.                RAD= n.a.               ROTPER= n.a.                
   H= 26.76                G= .150                 B-V= n.a.                   
                           ALBEDO= n.a.            STYP= n.a.                  
*******************************************************************************
 Date__(UT)__HR:MN     R.A._________(ICRF)_________DEC
******************************************************
$$SOE
 2018-Oct-10 04:12 Cm  08 48 45.931770 -09 03 05.66772
 2018-Oct-10 04:13 Cm  08 48 46.023234 -09 03 05.72797
 2018-Oct-10 04:14 Cm  08 48 46.114737 -09 03 05.78841
 2018-Oct-10 04:15 Cm  08 48 46.206278 -09 03 05.84905
 2018-Oct-10 04:16 Cm  08 48 46.297858 -09 03 05.90989
 2018-Oct-10 04:17 Cm  08 48 46.389475 -09 03 05.97093
 2018-Oct-10 04:18 Cm  08 48 46.481129 -09 03 06.03217
 2018-Oct-10 04:19 Cm  08 48 46.572821 -09 03 06.09361
 2018-Oct-10 04:20 Cm  08 48 46.664549 -09 03 06.15525
 2018-Oct-10 04:21 Cm  08 48 46.756313 -09 03 06.21710
 2018-Oct-10 04:22 Cm  08 48 46.848113 -09 03 06.27914
 2018-Oct-10 04:23 Cm  08 48 46.939948 -09 03 06.34139
 2018-Oct-10 04:24 Cm  08 48 47.031819 -09 03 06.40383
 2018-Oct-10 04:25 Cm  08 48 47.123724 -09 03 06.46649
 2018-Oct-10 04:26 Nm  08 48 47.215664 -09 03 06.52934
 2018-Oct-10 04:27 Nm  08 48 47.307637 -09 03 06.59240
 2018-Oct-10 04:28 Nm  08 48 47.399644 -09 03 06.65566
 2018-Oct-10 04:29 Nm  08 48 47.491684 -09 03 06.71912
 2018-Oct-10 04:30 Nm  08 48 47.583757 -09 03 06.78279
 2018-Oct-10 04:31 Nm  08 48 47.675862 -09 03 06.84667
 2018-Oct-10 04:32 Nm  08 48 47.767999 -09 03 06.91075
 2018-Oct-10 04:33 Nm  08 48 47.860168 -09 03 06.97503
 2018-Oct-10 04:34 Nm  08 48 47.952367 -09 03 07.03953
 2018-Oct-10 04:35 Nm  08 48 48.044598 -09 03 07.10422
 2018-Oct-10 04:36 Nm  08 48 48.136859 -09 03 07.16913
 2018-Oct-10 04:37 Nm  08 48 48.229150 -09 03 07.23424
 2018-Oct-10 04:38 Nm  08 48 48.321470 -09 03 07.29956
 2018-Oct-10 04:39 Nm  08 48 48.413820 -09 03 07.36509
 2018-Oct-10 04:40 Nm  08 48 48.506198 -09 03 07.43082
 2018-Oct-10 04:41 Nm  08 48 48.598605 -09 03 07.49676
 2018-Oct-10 04:42 Nm  08 48 48.691040 -09 03 07.56291
 2018-Oct-10 04:43 Nm  08 48 48.783502 -09 03 07.62927
 2018-Oct-10 04:44 Nm  08 48 48.875992 -09 03 07.69584
 2018-Oct-10 04:45 Nm  08 48 48.968508 -09 03 07.76262
 2018-Oct-10 04:46 Nm  08 48 49.061051 -09 03 07.82961
 2018-Oct-10 04:47 Nm  08 48 49.153620 -09 03 07.89681
 2018-Oct-10 04:48 Nm  08 48 49.246214 -09 03 07.96422
 2018-Oct-10 04:49 Nm  08 48 49.338834 -09 03 08.03184
 2018-Oct-10 04:50 Nm  08 48 49.431478 -09 03 08.09967
 2018-Oct-10 04:51 Am  08 48 49.524147 -09 03 08.16771
 2018-Oct-10 04:52 Am  08 48 49.616840 -09 03 08.23596
 2018-Oct-10 04:53 Am  08 48 49.709557 -09 03 08.30443
 2018-Oct-10 04:54 Am  08 48 49.802296 -09 03 08.37310
 2018-Oct-10 04:55 Am  08 48 49.895059 -09 03 08.44199
 2018-Oct-10 04:56 Am  08 48 49.987843 -09 03 08.51109
 2018-Oct-10 04:57 Am  08 48 50.080650 -09 03 08.58041
 2018-Oct-10 04:58 Am  08 48 50.173479 -09 03 08.64993
 2018-Oct-10 04:59 Am  08 48 50.266328 -09 03 08.71967
 2018-Oct-10 05:00 Am  08 48 50.359198 -09 03 08.78963
 2018-Oct-10 05:01 Am  08 48 50.452089 -09 03 08.85980
 2018-Oct-10 05:02 Am  08 48 50.545000 -09 03 08.93018
 2018-Oct-10 05:03 Am  08 48 50.637930 -09 03 09.00077
 2018-Oct-10 05:04 Am  08 48 50.730879 -09 03 09.07158
 2018-Oct-10 05:05 Am  08 48 50.823847 -09 03 09.14261
 2018-Oct-10 05:06 A   08 48 50.916833 -09 03 09.21384
 2018-Oct-10 05:07 A   08 48 51.009838 -09 03 09.28530
 2018-Oct-10 05:08 A   08 48 51.102860 -09 03 09.35697
 2018-Oct-10 05:09 A   08 48 51.195898 -09 03 09.42885
 2018-Oct-10 05:10 A   08 48 51.288954 -09 03 09.50095
 2018-Oct-10 05:11 A   08 48 51.382026 -09 03 09.57327
 2018-Oct-10 05:12 A   08 48 51.475113 -09 03 09.64580
 2018-Oct-10 05:13 A   08 48 51.568217 -09 03 09.71855
 2018-Oct-10 05:14 A   08 48 51.661335 -09 03 09.79151
 2018-Oct-10 05:15 A   08 48 51.754468 -09 03 09.86469
 2018-Oct-10 05:16 A   08 48 51.847615 -09 03 09.93809
 2018-Oct-10 05:17     08 48 51.940776 -09 03 10.01170
 2018-Oct-10 05:18     08 48 52.033950 -09 03 10.08554
 2018-Oct-10 05:19     08 48 52.127137 -09 03 10.15958
 2018-Oct-10 05:20     08 48 52.220337 -09 03 10.23385
 2018-Oct-10 05:21     08 48 52.313549 -09 03 10.30833
 2018-Oct-10 05:22     08 48 52.406773 -09 03 10.38303
 2018-Oct-10 05:23     08 48 52.500008 -09 03 10.45795
 2018-Oct-10 05:24     08 48 52.593254 -09 03 10.53309
 2018-Oct-10 05:25     08 48 52.686510 -09 03 10.60844
 2018-Oct-10 05:26     08 48 52.779777 -09 03 10.68401
 2018-Oct-10 05:27     08 48 52.873053 -09 03 10.75980
 2018-Oct-10 05:28     08 48 52.966339 -09 03 10.83581
 2018-Oct-10 05:29     08 48 53.059633 -09 03 10.91204
 2018-Oct-10 05:30     08 48 53.152936 -09 03 10.98849
 2018-Oct-10 05:31     08 48 53.246247 -09 03 11.06515
 2018-Oct-10 05:32     08 48 53.339565 -09 03 11.14203
 2018-Oct-10 05:33     08 48 53.432891 -09 03 11.21914
 2018-Oct-10 05:34     08 48 53.526223 -09 03 11.29646
 2018-Oct-10 05:35     08 48 53.619562 -09 03 11.37400
 2018-Oct-10 05:36     08 48 53.712907 -09 03 11.45176
 2018-Oct-10 05:37     08 48 53.806257 -09 03 11.52974
 2018-Oct-10 05:38     08 48 53.899613 -09 03 11.60794
 2018-Oct-10 05:39     08 48 53.992973 -09 03 11.68635
 2018-Oct-10 05:40     08 48 54.086337 -09 03 11.76499
 2018-Oct-10 05:41     08 48 54.179706 -09 03 11.84385
 2018-Oct-10 05:42     08 48 54.273077 -09 03 11.92292
 2018-Oct-10 05:43     08 48 54.366452 -09 03 12.00222
 2018-Oct-10 05:44     08 48 54.459830 -09 03 12.08173
 2018-Oct-10 05:45     08 48 54.553209 -09 03 12.16147
 2018-Oct-10 05:46     08 48 54.646591 -09 03 12.24142
 2018-Oct-10 05:47     08 48 54.739973 -09 03 12.32160
 2018-Oct-10 05:48     08 48 54.833357 -09 03 12.40199
 2018-Oct-10 05:49     08 48 54.926741 -09 03 12.48261
 2018-Oct-10 05:50     08 48 55.020126 -09 03 12.56344
 2018-Oct-10 05:51     08 48 55.113510 -09 03 12.64450
 2018-Oct-10 05:52     08 48 55.206893 -09 03 12.72577
 2018-Oct-10 05:53     08 48 55.300275 -09 03 12.80727
 2018-Oct-10 05:54     08 48 55.393656 -09 03 12.88898
 2018-Oct-10 05:55     08 48 55.487035 -09 03 12.97091
 2018-Oct-10 05:56     08 48 55.580411 -09 03 13.05307
 2018-Oct-10 05:57     08 48 55.673785 -09 03 13.13544
 2018-Oct-10 05:58     08 48 55.767155 -09 03 13.21804
 2018-Oct-10 05:59     08 48 55.860522 -09 03 13.30085
 2018-Oct-10 06:00     08 48 55.953885 -09 03 13.38389
 2018-Oct-10 06:01     08 48 56.047243 -09 03 13.46714
 2018-Oct-10 06:02     08 48 56.140597 -09 03 13.55061
 2018-Oct-10 06:03     08 48 56.233945 -09 03 13.63431
 2018-Oct-10 06:04     08 48 56.327287 -09 03 13.71822
 2018-Oct-10 06:05     08 48 56.420623 -09 03 13.80235
 2018-Oct-10 06:06     08 48 56.513953 -09 03 13.88671
 2018-Oct-10 06:07     08 48 56.607276 -09 03 13.97128
 2018-Oct-10 06:08     08 48 56.700591 -09 03 14.05607
 2018-Oct-10 06:09     08 48 56.793899 -09 03 14.14108
 2018-Oct-10 06:10     08 48 56.887199 -09 03 14.22631
 2018-Oct-10 06:11     08 48 56.980489 -09 03 14.31177
 2018-Oct-10 06:12     08 48 57.073771 -09 03 14.39744
 2018-Oct-10 06:13     08 48 57.167044 -09 03 14.48333
 2018-Oct-10 06:14     08 48 57.260306 -09 03 14.56943
